CCSDS_OMM_VERS = 2.0
CREATION_DATE  = 
ORIGINATOR     = 

OBJECT_NAME    = STARLINK-35946
OBJECT_ID      = 2025-265G
CENTER_NAME    = EARTH
REF_FRAME      = TEME
TIME_SYSTEM    = UTC
MEAN_ELEMENT_THEORY = SGP/SGP4

EPOCH          = 2025-12-11T06:00:02.999808
MEAN_MOTION    = 15.50621742
ECCENTRICITY   = .00014854
INCLINATION    = 42.9999
RA_OF_ASC_NODE = 62.7044
ARG_OF_PERICENTER = 264.9401
MEAN_ANOMALY   = 197.7472

EPHEMERIS_TYPE = 0
CLASSIFICATION_TYPE = U
NORAD_CAT_ID   = 66522
ELEMENT_SET_NO = 999
REV_AT_EPOCH   = 475
BSTAR          = -.15394094E-2
MEAN_MOTION_DOT = -.8976E-3
MEAN_MOTION_DDOT = 0

CCSDS_OMM_VERS = 2.0
CREATION_DATE  = 
ORIGINATOR     = 

OBJECT_NAME    = STARLINK-35969
OBJECT_ID      = 2025-265H
CENTER_NAME    = EARTH
REF_FRAME      = TEME
TIME_SYSTEM    = UTC
MEAN_ELEMENT_THEORY = SGP/SGP4

EPOCH          = 2025-12-11T06:00:02.999808
MEAN_MOTION    = 15.50620120
ECCENTRICITY   = .00040614
INCLINATION    = 43.0003
RA_OF_ASC_NODE = 62.7007
ARG_OF_PERICENTER = 284.5093
MEAN_ANOMALY   = 180.1387

EPHEMERIS_TYPE = 0
CLASSIFICATION_TYPE = U
NORAD_CAT_ID   = 66523
ELEMENT_SET_NO = 999
REV_AT_EPOCH   = 475
BSTAR          = -.17042646E-2
MEAN_MOTION_DOT = -.9925E-3
MEAN_MOTION_DDOT = 0

CCSDS_OMM_VERS = 2.0
CREATION_DATE  = 
ORIGINATOR     = 

OBJECT_NAME    = STARLINK-35687
OBJECT_ID      = 2025-265J
CENTER_NAME    = EARTH
REF_FRAME      = TEME
TIME_SYSTEM    = UTC
MEAN_ELEMENT_THEORY = SGP/SGP4

EPOCH          = 2025-12-11T06:00:02.999808
MEAN_MOTION    = 15.48664312
ECCENTRICITY   = .00014489
INCLINATION    = 42.9999
RA_OF_ASC_NODE = 62.6976
ARG_OF_PERICENTER = 274.6235
MEAN_ANOMALY   = 190.4118

EPHEMERIS_TYPE = 0
CLASSIFICATION_TYPE = U
NORAD_CAT_ID   = 66524
ELEMENT_SET_NO = 999
REV_AT_EPOCH   = 475
BSTAR          = -.42657764E-1
MEAN_MOTION_DOT = -.2078176E-1
MEAN_MOTION_DDOT = 0

CCSDS_OMM_VERS = 2.0
CREATION_DATE  = 
ORIGINATOR     = 

OBJECT_NAME    = STARLINK-35975
OBJECT_ID      = 2025-265K
CENTER_NAME    = EARTH
REF_FRAME      = TEME
TIME_SYSTEM    = UTC
MEAN_ELEMENT_THEORY = SGP/SGP4

EPOCH          = 2025-12-11T06:00:02.999808
MEAN_MOTION    = 15.50631009
ECCENTRICITY   = .0001404
INCLINATION    = 43.0002
RA_OF_ASC_NODE = 62.6902
ARG_OF_PERICENTER = 266.7078
MEAN_ANOMALY   = 201.7271

EPHEMERIS_TYPE = 0
CLASSIFICATION_TYPE = U
NORAD_CAT_ID   = 66525
ELEMENT_SET_NO = 999
REV_AT_EPOCH   = 475
BSTAR          = -.17263813E-2
MEAN_MOTION_DOT = -.100516E-2
MEAN_MOTION_DDOT = 0

CCSDS_OMM_VERS = 2.0
CREATION_DATE  = 
ORIGINATOR     = 

OBJECT_NAME    = STARLINK-35932
OBJECT_ID      = 2025-265L
CENTER_NAME    = EARTH
REF_FRAME      = TEME
TIME_SYSTEM    = UTC
MEAN_ELEMENT_THEORY = SGP/SGP4

EPOCH          = 2025-12-11T06:00:02.999808
MEAN_MOTION    = 15.50624264
ECCENTRICITY   = .00014803
INCLINATION    = 43.0001
RA_OF_ASC_NODE = 62.6856
ARG_OF_PERICENTER = 262.6152
MEAN_ANOMALY   = 207.7347

EPHEMERIS_TYPE = 0
CLASSIFICATION_TYPE = U
NORAD_CAT_ID   = 66526
ELEMENT_SET_NO = 999
REV_AT_EPOCH   = 464
BSTAR          = -.15803519E-2
MEAN_MOTION_DOT = -.92119E-3
MEAN_MOTION_DDOT = 0

CCSDS_OMM_VERS = 2.0
CREATION_DATE  = 
ORIGINATOR     = 

OBJECT_NAME    = STARLINK-35935
OBJECT_ID      = 2025-265M
CENTER_NAME    = EARTH
REF_FRAME      = TEME
TIME_SYSTEM    = UTC
MEAN_ELEMENT_THEORY = SGP/SGP4

EPOCH          = 2025-12-11T06:00:02.999808
MEAN_MOTION    = 15.50626549
ECCENTRICITY   = .00013853
INCLINATION    = 43.0001
RA_OF_ASC_NODE = 62.6807
ARG_OF_PERICENTER = 259.3403
MEAN_ANOMALY   = 212.9285

EPHEMERIS_TYPE = 0
CLASSIFICATION_TYPE = U
NORAD_CAT_ID   = 66527
ELEMENT_SET_NO = 999
REV_AT_EPOCH   = 475
BSTAR          = -.16371735E-2
MEAN_MOTION_DOT = -.95386E-3
MEAN_MOTION_DDOT = 0

CCSDS_OMM_VERS = 2.0
CREATION_DATE  = 
ORIGINATOR     = 

OBJECT_NAME    = STARLINK-35928
OBJECT_ID      = 2025-265N
CENTER_NAME    = EARTH
REF_FRAME      = TEME
TIME_SYSTEM    = UTC
MEAN_ELEMENT_THEORY = SGP/SGP4

EPOCH          = 2025-12-11T06:00:02.999808
MEAN_MOTION    = 15.50630932
ECCENTRICITY   = .00014127
INCLINATION    = 43.0003
RA_OF_ASC_NODE = 62.6760
ARG_OF_PERICENTER = 268.1920
MEAN_ANOMALY   = 205.9937

EPHEMERIS_TYPE = 0
CLASSIFICATION_TYPE = U
NORAD_CAT_ID   = 66528
ELEMENT_SET_NO = 999
REV_AT_EPOCH   = 475
BSTAR          = -.18711054E-2
MEAN_MOTION_DOT = -.108799E-2
MEAN_MOTION_DDOT = 0

CCSDS_OMM_VERS = 2.0
CREATION_DATE  = 
ORIGINATOR     = 

OBJECT_NAME    = STARLINK-35933
OBJECT_ID      = 2025-265P
CENTER_NAME    = EARTH
REF_FRAME      = TEME
TIME_SYSTEM    = UTC
MEAN_ELEMENT_THEORY = SGP/SGP4

EPOCH          = 2025-12-11T06:00:02.999808
MEAN_MOTION    = 15.49026923
ECCENTRICITY   = .00013048
INCLINATION    = 43.0001
RA_OF_ASC_NODE = 62.6732
ARG_OF_PERICENTER = 277.6036
MEAN_ANOMALY   = 197.5259

EPHEMERIS_TYPE = 0
CLASSIFICATION_TYPE = U
NORAD_CAT_ID   = 66529
ELEMENT_SET_NO = 999
REV_AT_EPOCH   = 475
BSTAR          = -.42354898E-1
MEAN_MOTION_DOT = -.2088725E-1
MEAN_MOTION_DDOT = 0

CCSDS_OMM_VERS = 2.0
CREATION_DATE  = 
ORIGINATOR     = 

OBJECT_NAME    = STARLINK-35961
OBJECT_ID      = 2025-265Q
CENTER_NAME    = EARTH
REF_FRAME      = TEME
TIME_SYSTEM    = UTC
MEAN_ELEMENT_THEORY = SGP/SGP4

EPOCH          = 2025-12-11T06:00:02.999808
MEAN_MOTION    = 15.50836801
ECCENTRICITY   = .00012918
INCLINATION    = 43.0002
RA_OF_ASC_NODE = 62.6667
ARG_OF_PERICENTER = 277.2393
MEAN_ANOMALY   = 200.7384

EPHEMERIS_TYPE = 0
CLASSIFICATION_TYPE = U
NORAD_CAT_ID   = 66530
ELEMENT_SET_NO = 999
REV_AT_EPOCH   = 475
BSTAR          = -.12917076E-1
MEAN_MOTION_DOT = -.700197E-2
MEAN_MOTION_DDOT = 0

CCSDS_OMM_VERS = 2.0
CREATION_DATE  = 
ORIGINATOR     = 

OBJECT_NAME    = STARLINK-35960
OBJECT_ID      = 2025-265R
CENTER_NAME    = EARTH
REF_FRAME      = TEME
TIME_SYSTEM    = UTC
MEAN_ELEMENT_THEORY = SGP/SGP4

EPOCH          = 2025-12-11T06:00:02.999808
MEAN_MOTION    = 15.50648342
ECCENTRICITY   = .00012778
INCLINATION    = 43.0002
RA_OF_ASC_NODE = 62.6618
ARG_OF_PERICENTER = 263.5337
MEAN_ANOMALY   = 216.3957

EPHEMERIS_TYPE = 0
CLASSIFICATION_TYPE = U
NORAD_CAT_ID   = 66531
ELEMENT_SET_NO = 999
REV_AT_EPOCH   = 475
BSTAR          = -.22401383E-2
MEAN_MOTION_DOT = -.129921E-2
MEAN_MOTION_DDOT = 0

CCSDS_OMM_VERS = 2.0
CREATION_DATE  = 
ORIGINATOR     = 

OBJECT_NAME    = STARLINK-35914
OBJECT_ID      = 2025-265S
CENTER_NAME    = EARTH
REF_FRAME      = TEME
TIME_SYSTEM    = UTC
MEAN_ELEMENT_THEORY = SGP/SGP4

EPOCH          = 2025-12-11T06:00:02.999808
MEAN_MOTION    = 15.50620924
ECCENTRICITY   = .00014822
INCLINATION    = 43.0000
RA_OF_ASC_NODE = 62.6564
ARG_OF_PERICENTER = 258.9486
MEAN_ANOMALY   = 222.9053

EPHEMERIS_TYPE = 0
CLASSIFICATION_TYPE = U
NORAD_CAT_ID   = 66532
ELEMENT_SET_NO = 999
REV_AT_EPOCH   = 475
BSTAR          = -.14722804E-2
MEAN_MOTION_DOT = -.859E-3
MEAN_MOTION_DDOT = 0

CCSDS_OMM_VERS = 2.0
CREATION_DATE  = 
ORIGINATOR     = 

OBJECT_NAME    = STARLINK-35707
OBJECT_ID      = 2025-265T
CENTER_NAME    = EARTH
REF_FRAME      = TEME
TIME_SYSTEM    = UTC
MEAN_ELEMENT_THEORY = SGP/SGP4

EPOCH          = 2025-12-11T06:00:02.999808
MEAN_MOTION    = 15.50620018
ECCENTRICITY   = .0001398
INCLINATION    = 43.0001
RA_OF_ASC_NODE = 62.6518
ARG_OF_PERICENTER = 264.6019
MEAN_ANOMALY   = 219.1684

EPHEMERIS_TYPE = 0
CLASSIFICATION_TYPE = U
NORAD_CAT_ID   = 66533
ELEMENT_SET_NO = 999
REV_AT_EPOCH   = 475
BSTAR          = -.14928042E-2
MEAN_MOTION_DOT = -.87076E-3
MEAN_MOTION_DDOT = 0

