STARLINK-35946          
1 66522U 25265G   25345.25003472 -.00089760  00000+0 -15394-2 0  9998
2 66522  42.9999  62.7044 0001485 264.9401 197.7472 15.50621742  4758
STARLINK-35969          
1 66523U 25265H   25345.25003472 -.00099250  00000+0 -17043-2 0  9997
2 66523  43.0003  62.7007 0004061 284.5093 180.1387 15.50620120  4754
STARLINK-35687          
1 66524U 25265J   25345.25003472 -.02078176  00000+0 -42658-1 0  9993
2 66524  42.9999  62.6976 0001448 274.6235 190.4118 15.48664312  4759
STARLINK-35975          
1 66525U 25265K   25345.25003472 -.00100516  00000+0 -17264-2 0  9992
2 66525  43.0002  62.6902 0001404 266.7078 201.7271 15.50631009  4751
STARLINK-35932          
1 66526U 25265L   25345.25003472 -.00092119  00000+0 -15804-2 0  9990
2 66526  43.0001  62.6856 0001480 262.6152 207.7347 15.50624264  4644
STARLINK-35935          
1 66527U 25265M   25345.25003472 -.00095386  00000+0 -16372-2 0  9991
2 66527  43.0001  62.6807 0001385 259.3403 212.9285 15.50626549  4756
STARLINK-35928          
1 66528U 25265N   25345.25003472 -.00108799  00000+0 -18711-2 0  9994
2 66528  43.0003  62.6760 0001412 268.1920 205.9937 15.50630932  4757
STARLINK-35933          
1 66529U 25265P   25345.25003472 -.02088725  00000+0 -42355-1 0  9993
2 66529  43.0001  62.6732 0001304 277.6036 197.5259 15.49026923  4758
STARLINK-35961          
1 66530U 25265Q   25345.25003472 -.00700197  00000+0 -12917-1 0  9998
2 66530  43.0002  62.6667 0001291 277.2393 200.7384 15.50836801  4757
STARLINK-35960          
1 66531U 25265R   25345.25003472 -.00129921  00000+0 -22401-2 0  9999
2 66531  43.0002  62.6618 0001277 263.5337 216.3957 15.50648342  4754
STARLINK-35914          
1 66532U 25265S   25345.25003472 -.00085900  00000+0 -14723-2 0  9996
2 66532  43.0000  62.6564 0001482 258.9486 222.9053 15.50620924  4750
STARLINK-35707          
1 66533U 25265T   25345.25003472 -.00087076  00000+0 -14928-2 0  9990
2 66533  43.0001  62.6518 0001398 264.6019 219.1684 15.50620018  4755
